[{"OBJECT_NAME":"TIANMU-1 11","OBJECT_ID":"2023-205A","EPOCH":"2026-03-10T00:04:04.804896","MEAN_MOTION":15.25886825,"ECCENTRICITY":0.00089558,"INCLINATION":97.3549,"RA_OF_ASC_NODE":92.1484,"ARG_OF_PERICENTER":7.2987,"MEAN_ANOMALY":352.838,"EPHEMERIS_TYPE":0,"CLASSIFICATION_TYPE":"U","NORAD_CAT_ID":58645,"ELEMENT_SET_NO":999,"REV_AT_EPOCH":12239,"BSTAR":0.00031315232,"MEAN_MOTION_DOT":7.963e-5,"MEAN_MOTION_DDOT":0},{"OBJECT_NAME":"STARLINK-35867","OBJECT_ID":"2025-278A","EPOCH":"2026-03-09T19:34:56.492832","MEAN_MOTION":15.2759637,"ECCENTRICITY":0.0001499,"INCLINATION":43.0007,"RA_OF_ASC_NODE":114.0738,"ARG_OF_PERICENTER":279.4001,"MEAN_ANOMALY":80.6681,"EPHEMERIS_TYPE":0,"CLASSIFICATION_TYPE":"U","NORAD_CAT_ID":66791,"ELEMENT_SET_NO":999,"REV_AT_EPOCH":1522,"BSTAR":0.0012254482,"MEAN_MOTION_DOT":0.0003363,"MEAN_MOTION_DDOT":0}]
